{"type": "FeatureCollection", "features": [ {"type": "Feature", "properties": {"norad_id": 37600, "name": "FENGYUN 1C DEB", "group": "fengyun-1c-debris", "lat": -1.5402894294807108, "lon": -42.62999326394197, "alt_km": 1062.0331002088142, "timestamp": "2025-12-06T14:35:37.415980+00:00", "meta": {"OBJECT_NAME": "FENGYUN 1C DEB", "OBJECT_ID": "1999-025EKU", "EPOCH": "2025-12-05T16:54:41.229504", "MEAN_MOTION": 13.82454545, "ECCENTRICITY": 0.03574715, "INCLINATION": 98.9362, "RA_OF_ASC_NODE": 136.7535, "ARG_OF_PERICENTER": 68.678, "MEAN_ANOMALY": 295.2139, "EPHEMERIS_TYPE": 0, "CLASSIFICATION_TYPE": "U", "NORAD_CAT_ID": 37600, "ELEMENT_SET_NO": 999, "REV_AT_EPOCH": 88390, "BSTAR": 0.0047689903, "MEAN_MOTION_DOT": 8.396e-05, "MEAN_MOTION_DDOT": 0}, "tle": {"line1": "1 37600U 99025EKU 25339.70464386  .00008396  00000+0  47690-2 0  9994", "line2": "2 37600  98.9362 136.7535 0357471  68.6780 295.2139 13.82454545883907"}}, "geometry": {"type": "Point", "coordinates": [-42.62999326394197, -1.5402894294807108]}}, {"type": "Feature", "properties": {"norad_id": 37683, "name": "FENGYUN 1C DEB", "group": "fengyun-1c-debris", "lat": -10.210882939220227, "lon": 80.28208304376908, "alt_km": 843.9121970364185, "timestamp": "2025-12-06T14:35:37.415990+00:00", "meta": {"OBJECT_NAME": "FENGYUN 1C DEB", "OBJECT_ID": "1999-025EKY", "EPOCH": "2025-12-02T13:11:44.275200", "MEAN_MOTION": 13.31856332, "ECCENTRICITY": 0.0584424, "INCLINATION": 98.0017, "RA_OF_ASC_NODE": 258.5506, "ARG_OF_PERICENTER": 151.0621, "MEAN_ANOMALY": 26.3812, "EPHEMERIS_TYPE": 0, "CLASSIFICATION_TYPE": "U", "NORAD_CAT_ID": 37683, "ELEMENT_SET_NO": 999, "REV_AT_EPOCH": 29104, "BSTAR": 0.00139877, "MEAN_MOTION_DOT": 1.732e-05, "MEAN_MOTION_DDOT": 0}, "tle": {"line1": "1 37683U 99025EKY 25336.54981800  .00001732  00000+0  13988-2 0  9999", "line2": "2 37683  98.0017 258.5506 0584424 151.0621  26.3812 13.31856332291041"}}, "geometry": {"type": "Point", "coordinates": [80.28208304376908, -10.210882939220227]}}, {"type": "Feature", "properties": {"norad_id": 37686, "name": "FENGYUN 1C DEB", "group": "fengyun-1c-debris", "lat": 47.7248057293282, "lon": -170.2004023310508, "alt_km": 1029.0642431730967, "timestamp": "2025-12-06T14:35:37.416000+00:00", "meta": {"OBJECT_NAME": "FENGYUN 1C DEB", "OBJECT_ID": "1999-025ELB", "EPOCH": "2025-12-02T07:33:22.437792", "MEAN_MOTION": 13.35350269, "ECCENTRICITY": 0.0396452, "INCLINATION": 99.0209, "RA_OF_ASC_NODE": 355.9344, "ARG_OF_PERICENTER": 68.1356, "MEAN_ANOMALY": 310.8807, "EPHEMERIS_TYPE": 0, "CLASSIFICATION_TYPE": "U", "NORAD_CAT_ID": 37686, "ELEMENT_SET_NO": 999, "REV_AT_EPOCH": 60488, "BSTAR": 0.0007759, "MEAN_MOTION_DOT": 5.81e-06, "MEAN_MOTION_DDOT": 0}, "tle": {"line1": "1 37686U 99025ELB 25336.31484303  .00000581  00000+0  77590-3 0  9994", "line2": "2 37686  99.0209 355.9344 0396452  68.1356 310.8807 13.35350269604882"}}, "geometry": {"type": "Point", "coordinates": [-170.2004023310508, 47.7248057293282]}}, {"type": "Feature", "properties": {"norad_id": 37687, "name": "FENGYUN 1C DEB", "group": "fengyun-1c-debris", "lat": 19.90191318218503, "lon": -160.5150755745379, "alt_km": 1139.81984965849, "timestamp": "2025-12-06T14:35:37.416010+00:00", "meta": {"OBJECT_NAME": "FENGYUN 1C DEB", "OBJECT_ID": "1999-025ELC", "EPOCH": "2025-12-04T22:31:35.154912", "MEAN_MOTION": 13.8519089, "ECCENTRICITY": 0.0333745, "INCLINATION": 98.2045, "RA_OF_ASC_NODE": 15.0265, "ARG_OF_PERICENTER": 20.5325, "MEAN_ANOMALY": 96.3024, "EPHEMERIS_TYPE": 0, "CLASSIFICATION_TYPE": "U", "NORAD_CAT_ID": 37687, "ELEMENT_SET_NO": 999, "REV_AT_EPOCH": 83146, "BSTAR": 0.0074014, "MEAN_MOTION_DOT": 0.00012954, "MEAN_MOTION_DDOT": 0}, "tle": {"line1": "1 37687U 99025ELC 25338.93860133  .00012954  00000+0  74014-2 0  9998", "line2": "2 37687  98.2045  15.0265 0333745  20.5325  96.3024 13.85190890831462"}}, "geometry": {"type": "Point", "coordinates": [-160.5150755745379, 19.90191318218503]}}, {"type": "Feature", "properties": {"norad_id": 37689, "name": "FENGYUN 1C DEB", "group": "fengyun-1c-debris", "lat": -48.539748372256966, "lon": -169.05029072546515, "alt_km": 724.8055556168747, "timestamp": "2025-12-06T14:35:37.416020+00:00", "meta": {"OBJECT_NAME": "FENGYUN 1C DEB", "OBJECT_ID": "1999-025ELE", "EPOCH": "2025-12-06T01:55:54.427584", "MEAN_MOTION": 14.48459711, "ECCENTRICITY": 0.00203163, "INCLINATION": 98.9199, "RA_OF_ASC_NODE": 20.6326, "ARG_OF_PERICENTER": 259.8016, "MEAN_ANOMALY": 100.0884, "EPHEMERIS_TYPE": 0, "CLASSIFICATION_TYPE": "U", "NORAD_CAT_ID": 37689, "ELEMENT_SET_NO": 999, "REV_AT_EPOCH": 57716, "BSTAR": 0.0039467762, "MEAN_MOTION_DOT": 0.00014819, "MEAN_MOTION_DDOT": 0}, "tle": {"line1": "1 37689U 99025ELE 25340.08049106  .00014819  00000+0  39468-2 0  9994", "line2": "2 37689  98.9199  20.6326 0020316 259.8016 100.0884 14.48459711577163"}}, "geometry": {"type": "Point", "coordinates": [-169.05029072546515, -48.539748372256966]}}, {"type": "Feature", "properties": {"norad_id": 37691, "name": "FENGYUN 1C DEB", "group": "fengyun-1c-debris", "lat": 56.980848822024534, "lon": 77.34485690022241, "alt_km": 557.7268379603674, "timestamp": "2025-12-06T14:35:37.416034+00:00", "meta": {"OBJECT_NAME": "FENGYUN 1C DEB", "OBJECT_ID": "1999-025ELG", "EPOCH": "2025-12-05T11:39:48.105216", "MEAN_MOTION": 14.57370835, "ECCENTRICITY": 0.02808842, "INCLINATION": 98.3726, "RA_OF_ASC_NODE": 243.1169, "ARG_OF_PERICENTER": 172.5567, "MEAN_ANOMALY": 187.9938, "EPHEMERIS_TYPE": 0, "CLASSIFICATION_TYPE": "U", "NORAD_CAT_ID": 37691, "ELEMENT_SET_NO": 999, "REV_AT_EPOCH": 85528, "BSTAR": 0.003181063, "MEAN_MOTION_DOT": 0.00024892, "MEAN_MOTION_DDOT": 0}, "tle": {"line1": "1 37691U 99025ELG 25339.48597344  .00024892  00000+0  31811-2 0  9997", "line2": "2 37691  98.3726 243.1169 0280884 172.5567 187.9938 14.57370835855288"}}, "geometry": {"type": "Point", "coordinates": [77.34485690022241, 56.980848822024534]}}, {"type": "Feature", "properties": {"norad_id": 37693, "name": "FENGYUN 1C DEB", "group": "fengyun-1c-debris", "lat": -14.161134505084833, "lon": 158.41220936754502, "alt_km": 879.999347499659, "timestamp": "2025-12-06T14:35:37.416044+00:00", "meta": {"OBJECT_NAME": "FENGYUN 1C DEB", "OBJECT_ID": "1999-025ELJ", "EPOCH": "2025-12-05T18:03:26.349984", "MEAN_MOTION": 14.08461253, "ECCENTRICITY": 0.00725441, "INCLINATION": 98.6975, "RA_OF_ASC_NODE": 339.8006, "ARG_OF_PERICENTER": 94.3443, "MEAN_ANOMALY": 82.7608, "EPHEMERIS_TYPE": 0, "CLASSIFICATION_TYPE": "U", "NORAD_CAT_ID": 37693, "ELEMENT_SET_NO": 999, "REV_AT_EPOCH": 62050, "BSTAR": 0.0009719942, "MEAN_MOTION_DOT": 1.666e-05, "MEAN_MOTION_DDOT": 0}, "tle": {"line1": "1 37693U 99025ELJ 25339.75238831  .00001666  00000+0  97199-3 0  9998", "line2": "2 37693  98.6975 339.8006 0072544  94.3443  82.7608 14.08461253620500"}}, "geometry": {"type": "Point", "coordinates": [158.41220936754502, -14.161134505084833]}}, {"type": "Feature", "properties": {"norad_id": 37694, "name": "FENGYUN 1C DEB", "group": "fengyun-1c-debris", "lat": 74.26380788613474, "lon": -100.52672194584797, "alt_km": 723.2511528221185, "timestamp": "2025-12-06T14:35:37.416054+00:00", "meta": {"OBJECT_NAME": "FENGYUN 1C DEB", "OBJECT_ID": "1999-025ELK", "EPOCH": "2025-11-23T11:03:37.255104", "MEAN_MOTION": 14.16434986, "ECCENTRICITY": 0.01492409, "INCLINATION": 98.199, "RA_OF_ASC_NODE": 36.5782, "ARG_OF_PERICENTER": 149.1235, "MEAN_ANOMALY": 270.2915, "EPHEMERIS_TYPE": 0, "CLASSIFICATION_TYPE": "U", "NORAD_CAT_ID": 37694, "ELEMENT_SET_NO": 999, "REV_AT_EPOCH": 51431, "BSTAR": 0.0018793287, "MEAN_MOTION_DOT": 4.13e-05, "MEAN_MOTION_DDOT": 0}, "tle": {"line1": "1 37694U 99025ELK 25327.46084786  .00004130  00000+0  18793-2 0  9993", "line2": "2 37694  98.1990  36.5782 0149240 149.1235 270.2915 14.16434986514319"}}, "geometry": {"type": "Point", "coordinates": [-100.52672194584797, 74.26380788613474]}}, {"type": "Feature", "properties": {"norad_id": 37695, "name": "FENGYUN 1C DEB", "group": "fengyun-1c-debris", "lat": 67.36905224175565, "lon": 4.5773607859386205, "alt_km": 1309.0580377628994, "timestamp": "2025-12-06T14:35:37.416064+00:00", "meta": {"OBJECT_NAME": "FENGYUN 1C DEB", "OBJECT_ID": "1999-025ELL", "EPOCH": "2025-11-12T09:45:41.390784", "MEAN_MOTION": 13.64847867, "ECCENTRICITY": 0.04648499, "INCLINATION": 98.2183, "RA_OF_ASC_NODE": 4.2705, "ARG_OF_PERICENTER": 342.0154, "MEAN_ANOMALY": 28.6211, "EPHEMERIS_TYPE": 0, "CLASSIFICATION_TYPE": "U", "NORAD_CAT_ID": 37695, "ELEMENT_SET_NO": 999, "REV_AT_EPOCH": 88838, "BSTAR": 0.0022999386, "MEAN_MOTION_DOT": 3.857e-05, "MEAN_MOTION_DDOT": 0}, "tle": {"line1": "1 37695U 99025ELL 25316.40672906  .00003857  00000+0  22999-2 0  9991", "line2": "2 37695  98.2183   4.2705 0464849 342.0154  28.6211 13.64847867888384"}}, "geometry": {"type": "Point", "coordinates": [4.5773607859386205, 67.36905224175565]}}, {"type": "Feature", "properties": {"norad_id": 37704, "name": "FENGYUN 1C DEB", "group": "fengyun-1c-debris", "lat": -80.76231663707226, "lon": -121.41926769487624, "alt_km": 965.4521737825726, "timestamp": "2025-12-06T14:35:37.416076+00:00", "meta": {"OBJECT_NAME": "FENGYUN 1C DEB", "OBJECT_ID": "1999-025ELV", "EPOCH": "2025-11-13T18:53:12.256224", "MEAN_MOTION": 13.70394507, "ECCENTRICITY": 0.02407203, "INCLINATION": 98.3154, "RA_OF_ASC_NODE": 154.7598, "ARG_OF_PERICENTER": 256.7939, "MEAN_ANOMALY": 163.8462, "EPHEMERIS_TYPE": 0, "CLASSIFICATION_TYPE": "U", "NORAD_CAT_ID": 37704, "ELEMENT_SET_NO": 999, "REV_AT_EPOCH": 61968, "BSTAR": 0.0028357246, "MEAN_MOTION_DOT": 3.039e-05, "MEAN_MOTION_DDOT": 0}, "tle": {"line1": "1 37704U 99025ELV 25317.78694741  .00003039  00000+0  28357-2 0  9991", "line2": "2 37704  98.3154 154.7598 0240720 256.7939 163.8462 13.70394507619687"}}, "geometry": {"type": "Point", "coordinates": [-121.41926769487624, -80.76231663707226]}}]}